NORAD_CAT_ID,OBJECT_NAME,OBJECT_TYPE,EPOCH,MEAN_MOTION,ECCENTRICITY,INCLINATION,RA_OF_ASC_NODE,ARG_OF_PERICENTER,MEAN_ANOMALY,BSTAR,MEAN_MOTION_DOT,MEAN_MOTION_DDOT,TLE_LINE0,TLE_LINE1,TLE_LINE2,SEMIMAJOR_AXIS,PERIOD,APOGEE,PERIGEE,DECAYED
52359.0,STARLINK-3853,PAYLOAD,2023-08-22 20:48:25,15.08845153,0.000121,53.2171,53.2688,86.5982,273.5149,6.4047e-05,7.32e-06,0.0,0 STARLINK-3853,1 52359U 22045AE  23234.86695789  .00000732  00000-0  64047-4 0  9996,2 52359  53.2171  53.2688 0001210  86.5982 273.5149 15.08845153 75417,6917.865,95.437,540.567,538.893,0.0
52359.0,STARLINK-3853,PAYLOAD,2023-08-23 11:06:53,15.08836463,0.0001205,53.2171,50.5934,78.7355,281.3773,0.00011716,1.577e-05,0.0,0 STARLINK-3853,1 52359U 22045AE  23235.46312342  .00001577  00000-0  11716-3 0  9996,2 52359  53.2171  50.5934 0001205  78.7355 281.3773 15.08836463 75506,6917.891,95.438,540.59,538.923,0.0
52359.0,STARLINK-3853,PAYLOAD,2023-08-24 12:33:04,15.08840325,0.0001223,53.2173,45.8348,85.3951,274.718,4.6612e-05,4.54e-06,0.0,0 STARLINK-3853,1 52359U 22045AE  23236.52296458  .00000454  00000-0  46612-4 0  9990,2 52359  53.2173  45.8348 0001223  85.3951 274.7180 15.08840325 75667,6917.879,95.438,540.59,538.898,0.0
52359.0,STARLINK-3853,PAYLOAD,2023-08-25 10:48:27,15.08842338,0.0001242,53.2172,41.6714,85.1125,275.0009,6.2818e-05,7.12e-06,0.0,0 STARLINK-3853,1 52359U 22045AE  23237.45032323  .00000712  00000-0  62818-4 0  9995,2 52359  53.2172  41.6714 0001242  85.1125 275.0009 15.08842338 75805,6917.873,95.437,540.597,538.879,0.0
52359.0,STARLINK-3853,PAYLOAD,2023-08-25 18:45:23,15.08845732,0.0001281,53.2184,40.1853,82.3223,277.7914,8.3992e-05,1.049e-05,0.0,0 STARLINK-3853,1 52359U 22045AE  23237.78152035  .00001049  00000-0  83992-4 0  9994,2 52359  53.2184  40.1853 0001281  82.3223 277.7914 15.08845732 75857,6917.863,95.437,540.614,538.842,0.0
52359.0,STARLINK-3853,PAYLOAD,2023-08-26 10:39:15,15.08838158,0.0001297,53.2186,37.2119,90.333,269.7811,7.3016e-05,8.74e-06,0.0,0 STARLINK-3853,1 52359U 22045AE  23238.44392552  .00000874  00000-0  73016-4 0  9999,2 52359  53.2186  37.2119 0001297  90.3330 269.7811 15.08838158 75958,6917.886,95.438,540.648,538.854,0.0
52359.0,STARLINK-3853,PAYLOAD,2023-08-26 17:00:47,15.08841116,0.0001321,53.2186,36.0226,89.6169,270.4974,9.19e-05,1.175e-05,0.0,0 STARLINK-3853,1 52359U 22045AE  23238.70888340  .00001175  00000-0  91900-4 0  9990,2 52359  53.2186  36.0226 0001321  89.6169 270.4974 15.08841116 75994,6917.877,95.437,540.656,538.828,0.0
52359.0,STARLINK-3853,PAYLOAD,2023-08-27 16:51:34,15.08843297,0.0001339,53.219,31.563,85.835,274.2795,8.1031e-05,1.002e-05,0.0,0 STARLINK-3853,1 52359U 22045AE  23239.70248226  .00001002  00000-0  81031-4 0  9997,2 52359  53.2190  31.5630 0001339  85.8350 274.2795 15.08843297 76140,6917.87,95.437,540.662,538.809,0.0
52359.0,STARLINK-3853,PAYLOAD,2023-08-28 16:42:21,15.08841556,0.0001362,53.2194,27.1029,90.5699,269.5449,6.6347e-05,7.68e-06,0.0,0 STARLINK-3853,1 52359U 22045AE  23240.69608353  .00000768  00000-0  66347-4 0  9999,2 52359  53.2194  27.1029 0001362  90.5699 269.5449 15.08841556 76297,6917.876,95.437,540.683,538.798,0.0
52359.0,STARLINK-3853,PAYLOAD,2023-08-29 14:57:45,15.08840981,0.0001308,53.219,22.9394,87.9349,272.1793,4.9411e-05,4.99e-06,0.0,0 STARLINK-3853,1 52359U 22045AE  23241.62344461  .00000499  00000-0  49411-4 0  9994,2 52359  53.2190  22.9394 0001308  87.9349 272.1793 15.08840981 76432,6917.877,95.437,540.647,538.838,0.0
52359.0,STARLINK-3853,PAYLOAD,2023-08-30 10:02:23,15.08833303,0.000119,53.2183,19.3715,85.9532,274.1596,4.8663e-05,4.87e-06,0.0,0 STARLINK-3853,1 52359U 22045AE  23242.41832998  .00000487  00000-0  48663-4 0  9994,2 52359  53.2183  19.3715 0001190  85.9532 274.1596 15.08833303 76558,6917.901,95.438,540.589,538.943,0.0
52359.0,STARLINK-3853,PAYLOAD,2023-08-30 16:23:55,15.08840021,0.0001134,53.2187,18.1808,95.212,264.9002,8.4296e-05,1.054e-05,0.0,0 STARLINK-3853,1 52359U 22045AE  23242.68328469  .00001054  00000-0  84296-4 0  9999,2 52359  53.2187  18.1808 0001134  95.2120 264.9002 15.08840021 76595,6917.88,95.438,540.53,538.961,0.0
52359.0,STARLINK-3853,PAYLOAD,2023-08-31 09:53:11,15.08831747,0.0001175,53.2186,14.9111,92.9481,267.1645,-3.2273e-07,-2.93e-06,0.0,0 STARLINK-3853,1 52359U 22045AE  23243.41193383 -.00000293  00000-0 -32273-6 0  9992,2 52359  53.2186  14.9111 0001175  92.9481 267.1645 15.08831747 76700,6917.906,95.438,540.583,538.958,0.0
52359.0,STARLINK-3853,PAYLOAD,2023-09-01 01:47:01,15.08841404,0.000118,53.2188,11.9362,90.6858,269.4269,1.589e-05,-3.5e-07,0.0,0 STARLINK-3853,1 52359U 22045AE  23244.07432793 -.00000035  00000-0  15890-4 0  9993,2 52359  53.2188  11.9362 0001180  90.6858 269.4269 15.08841404 76805,6917.876,95.437,540.557,538.925,0.0
52359.0,STARLINK-3853,PAYLOAD,2023-09-01 09:43:57,15.08840775,0.000151,53.2199,10.4505,93.3911,266.7254,6.5066e-05,7.48e-06,0.0,0 STARLINK-3853,1 52359U 22045AE  23244.40552941  .00000748  00000-0  65066-4 0  9998,2 52359  53.2199  10.4505 0001510  93.3911 266.7254 15.08840775 76856,6917.878,95.438,540.788,538.698,0.0
52359.0,STARLINK-3853,PAYLOAD,2023-09-02 07:59:21,15.08840693,0.0001488,53.2207,6.288,90.0429,270.0733,0.00012021,1.626e-05,0.0,0 STARLINK-3853,1 52359U 22045AE  23245.33288879  .00001626  00000-0  12021-3 0  9995,2 52359  53.2207   6.2880 0001488  90.0429 270.0733 15.08840693 76991,6917.878,95.438,540.773,538.714,0.0
52359.0,STARLINK-3853,PAYLOAD,2023-09-02 12:45:31,15.08840852,0.0001489,53.2205,5.3958,90.0584,270.0579,0.00011669,1.57e-05,0.0,0 STARLINK-3853,1 52359U 22045AE  23245.53160894  .00001570  00000-0  11669-3 0  9998,2 52359  53.2205   5.3958 0001489  90.0584 270.0579 15.08840852 77028,6917.878,95.438,540.773,538.713,0.0
52359.0,STARLINK-3853,PAYLOAD,2023-09-02 14:20:53,15.08843698,0.0001372,53.2196,5.0975,90.9421,269.1728,0.00010494,1.383e-05,0.0,0 STARLINK-3853,1 52359U 22045AE  23245.59784714  .00001383  00000-0  10494-3 0  9994,2 52359  53.2196   5.0975 0001372  90.9421 269.1728 15.08843698 77030,6917.869,95.437,540.683,538.785,0.0
52359.0,STARLINK-3853,PAYLOAD,2023-09-03 14:11:40,15.0885238,0.0001361,53.2195,0.6374,89.6657,270.4491,0.00014683,2.05e-05,0.0,0 STARLINK-3853,1 52359U 22045AE  23246.59143753  .00002050  00000-0  14683-3 0  9993,2 52359  53.2195   0.6374 0001361  89.6657 270.4491 15.08852380 77183,6917.843,95.437,540.649,538.766,0.0
52359.0,STARLINK-3853,PAYLOAD,2023-09-04 01:19:22,15.08847935,0.0001147,53.2189,358.5566,69.8391,290.2725,8.4721e-05,1.061e-05,0.0,0 STARLINK-3853,1 52359U 22045AE  23247.05511978  .00001061  00000-0  84721-4 0  9995,2 52359  53.2189 358.5566 0001147  69.8391 290.2725 15.08847935 77259,6917.856,95.437,540.515,538.928,0.0
52359.0,STARLINK-3853,PAYLOAD,2023-09-04 07:40:55,15.08839308,0.0001823,53.2206,357.3663,91.4007,268.7194,-4.8884e-06,-3.66e-06,0.0,0 STARLINK-3853,1 52359U 22045AE  23247.32008955 -.00000366  00000-0 -48884-5 0  9991,2 52359  53.2206 357.3663 0001823  91.4007 268.7194 15.08839308 77299,6917.883,95.438,541.009,538.486,0.0
52359.0,STARLINK-3853,PAYLOAD,2023-09-04 10:51:42,15.08834358,0.0001641,53.2192,356.7691,116.1989,243.9172,-5.0954e-05,-1.099e-05,0.0,0 STARLINK-3853,1 52359U 22045AE  23247.45257260 -.00001099  00000-0 -50954-4 0  9994,2 52359  53.2192 356.7691 0001641 116.1989 243.9172 15.08834358 77313,6917.898,95.438,540.898,538.627,0.0
52359.0,STARLINK-3853,PAYLOAD,2023-09-05 07:31:43,15.08839255,0.0001369,53.2197,352.9058,103.7276,256.3868,-4.2655e-05,-9.67e-06,0.0,0 STARLINK-3853,1 52359U 22045AE  23248.31369341 -.00000967  00000-0 -42655-4 0  9996,2 52359  53.2197 352.9058 0001369 103.7276 256.3868 15.08839255 77446,6917.883,95.438,540.695,538.801,0.0
52359.0,STARLINK-3853,PAYLOAD,2023-09-05 23:25:33,15.08848656,0.0001539,53.2207,349.9332,100.2462,259.8704,-7.1536e-05,-1.427e-05,0.0,0 STARLINK-3853,1 52359U 22045AE  23248.97608795 -.00001427  00000-0 -71536-4 0  9999,2 52359  53.2207 349.9332 0001539 100.2462 259.8704 15.08848656 77540,6917.854,95.437,540.784,538.654,0.0
52359.0,STARLINK-3853,PAYLOAD,2023-09-06 07:22:30,15.08831886,0.0001356,53.2199,348.4464,105.7028,254.4114,0.00020343,2.95e-05,0.0,0 STARLINK-3853,1 52359U 22045AE  23249.30729594  .00002950  00000-0  20343-3 0  9997,2 52359  53.2199 348.4464 0001356 105.7028 254.4114 15.08831886 77593,6917.905,95.438,540.708,538.832,0.0
52359.0,STARLINK-3853,PAYLOAD,2023-09-07 07:13:17,15.08839027,0.0001306,53.218,343.9858,88.1526,271.9615,0.0001061,1.401e-05,0.0,0 STARLINK-3853,1 52359U 22045AE  23250.30089771  .00001401  00000-0  10610-3 0  9991,2 52359  53.2180 343.9858 0001306  88.1526 271.9615 15.08839027 77744,6917.883,95.438,540.652,538.845,0.0
52359.0,STARLINK-3853,PAYLOAD,2023-09-07 23:07:09,15.08837603,0.0001552,53.2183,341.0125,95.5212,264.5957,5.9379e-05,6.57e-06,0.0,0 STARLINK-3853,1 52359U 22045AE  23250.96330080  .00000657  00000-0  59379-4 0  9993,2 52359  53.2183 341.0125 0001552  95.5212 264.5957 15.08837603 77846,6917.888,95.438,540.826,538.679,0.0
52359.0,STARLINK-3853,PAYLOAD,2023-09-08 13:25:36,15.0884581,0.0001116,53.2176,338.3354,76.0555,284.0562,5.7419e-05,6.26e-06,0.0,0 STARLINK-3853,1 52359U 22045AE  23251.55945495  .00000626  00000-0  57419-4 0  9990,2 52359  53.2176 338.3354 0001116  76.0555 284.0562 15.08845810 77939,6917.863,95.437,540.5,538.956,0.0
52359.0,STARLINK-3853,PAYLOAD,2023-09-09 11:41:01,15.08832976,0.0001338,53.2184,334.1728,86.336,273.7785,5.7169e-05,6.22e-06,0.0,0 STARLINK-3853,1 52359U 22045AE  23252.48682609  .00000622  00000-0  57169-4 0  9996,2 52359  53.2184 334.1728 0001338  86.3360 273.7785 15.08832976 78078,6917.902,95.438,540.692,538.841,0.0
52359.0,STARLINK-3853,PAYLOAD,2023-09-09 13:16:24,15.0883839,0.0001353,53.218,333.8749,89.5278,270.5869,9.0122e-05,1.147e-05,0.0,0 STARLINK-3853,1 52359U 22045AE  23252.55306225  .00001147  00000-0  90122-4 0  9990,2 52359  53.2180 333.8749 0001353  89.5278 270.5869 15.08838390 78088,6917.885,95.438,540.686,538.814,0.0
